BEESAT-4                
1 41619U 16040W   21240.86610475  .00007078  00000-0  27833-3 0  9996
2 41619  97.2631 294.9205 0012289  78.4509 281.8109 15.25891808276053
CAS-2T & KS-1Q          
1 41847U 16066G   21240.75962055  .00000284  00000-0  53027-4 0  9996
2 41847  98.5952 300.1635 0365207   4.7339 355.7150 14.38229966252275
NAYIF-1 (EO-88)         
1 42017U 17008BX  21240.84049025  .00007694  00000-0  27917-3 0  9996
2 42017  97.3101 307.1430 0005357 194.8827 165.2257 15.28590350252313
ZHUHAI-1 02 (CAS-4B)    
1 42759U 17034B   21241.18486623  .00000708  00000-0  55730-4 0  9999
2 42759  43.0173 141.1958 0009560 264.1009 225.9285 15.10326023232146
ZHUHAI-1 01 (CAS-4A)    
1 42761U 17034D   21241.47721065  .00000799  00000-0  61041-4 0  9998
2 42761  43.0181 138.5892 0009970 266.1687  87.4537 15.10415178232189
MAX VALIER SAT          
1 42778U 17036P   21241.39494384  .00004505  00000-0  18939-3 0  9996
2 42778  97.2490 287.6008 0009911 280.1138  79.8982 15.23862594232392
RADFXSAT (FOX-1B)       
1 43017U 17073E   21240.69482584  .00002663  00000-0  20722-3 0  9991
2 43017  97.6984 141.7954 0255979  64.7746 297.9766 14.79674602203807
FOX-1D (AO-92)          
1 43137U 18004AC  21240.88510720  .00004733  00000-0  18942-3 0  9995
2 43137  97.4019 314.1728 0007556 325.1688  34.9054 15.25532310201704
DIWATA-2B               
1 43678U 18084H   21241.56620486 -.00000168  00000-0 -10938-4 0  9998
2 43678  97.9339   7.2599 0010065 161.5040 198.6576 14.91775669154334
ES'HAIL 2               
1 43700U 18090A   21240.86324784  .00000140  00000-0  00000-0 0  9998
2 43700   0.0169 146.0147 0002055  47.6905 120.1632  1.00270399 10094
FOX-1CLIFF (AO-95)      
1 43770U 18099N   21241.38714011  .00001088  00000-0  10350-3 0  9992
2 43770  97.6597 309.9483 0014851 168.4203 191.7363 14.95402276149357
ITASAT 1                
1 43786U 18099AE  21240.75709462  .00001222  00000-0  11472-3 0  9999
2 43786  97.6623 310.0610 0015562 163.1266 197.0475 14.95689814149291
JY1SAT (JO-97)          
1 43803U 18099AX  21240.70865109  .00000899  00000-0  85164-4 0  9994
2 43803  97.6582 309.7579 0015429 163.7572 196.4147 14.95949626149291
UWE-4                   
1 43880U 18111E   21241.24527663  .00000840  00000-0  78077-4 0  9995
2 43880  97.6805 147.7186 0010909 214.8788 145.1720 14.96961241143978
NEXUS (FO-99)           
1 43937U 19003F   21240.85005402  .00006558  00000-0  25494-3 0  9993
2 43937  97.1708 281.1225 0024723 114.1221 246.2608 15.26076229145302
PSAT2 (NO-104)          
1 44354U 19036R   21240.64654112  .00020746  00000-0  26693-3 0  9995
2 44354  28.5298   4.8357 0316257 340.3104  18.5517 15.15897085119931
BRICSAT2 (NO-103)       
1 44355U 19036S   21240.49613555  .00054895 -51514-5  54333-3 0  9991
2 44355  28.5242 307.9479 0245310  73.0219 289.7111 15.34725643120497
JAISAT-1                
1 44419U 19038F   21240.88292871  .00003849  00000-0  21458-3 0  9994
2 44419  97.5946 205.3502 0022602  64.5956 295.7611 15.13979925118752
DUCHIFAT-3              
1 44854U 19089C   21241.50602024  .00000619  00000-0  55717-4 0  9996
2 44854  36.9652  28.5844 0009095   1.2177 358.8598 14.99589530 94079
CAS-6 (TO-108)          
1 44881U 19093C   21241.20996043  .00000090  00000-0  18261-4 0  9991
2 44881  97.9214 319.2363 0016359  59.2465 301.0360 14.81474281 91509
RS-44 & BREEZE-KM R/B   
1 44909U 19096E   21240.86711962 -.00000008  00000-0 -70331-4 0  9998
2 44909  82.5177  64.6885 0216429 283.8899  73.8213 12.79710482 78084
ORBITAL FACTORY 2 (OF-2)
1 45113U 19071C   21240.75231481  .00011352  00000-0  32530-3 0  9990
2 45113  51.6423  46.8224 0011680 192.4903 167.5792 15.36322285 88287
HUSKYSAT-1 (HO-107)     
1 45119U 19071J   21241.41386849  .00011081  00000-0  31791-3 0  9996
2 45119  51.6419  42.9828 0011099 191.2458 168.8279 15.36318569 88386
BY70-2                  
1 45857U 20042B   21241.12671721  .00001189  00000-0  17501-3 0  9990
2 45857  97.9815 316.1190 0010262 348.3638  11.7350 14.77220662 62278
SALSAT                  
1 46495U 20068K   21240.93755468 -.00000051  00000-0  85321-6 0  9992
2 46495  97.6962 178.0171 0016335 180.0936 180.0302 15.03523691 50227
BY70-3                  
1 46839U 20079N   21241.45086209  .00004248  00000-0  13069-3 0  9992
2 46839  97.2360 313.8656 0005550 312.7494 173.4554 15.34190999 45396
RADFXSAT-2 (AO-109)     
1 47311U 21002C   21240.69790130  .00004638  00000-0  20940-3 0  9994
2 47311  60.6875  20.7059 0041543  85.2207 275.3622 15.21910491 33864
UVSQ-SAT                
1 47438U 21006AB  21240.65730974  .00002757  00000-0  15829-3 0  9994
2 47438  97.4816 300.5735 0012057 201.9247 158.1470 15.13309671 32979
DIY-1 (ARDUIQUBE)       
1 47963U 21022AH  21241.44651872  .00008591  00000-0  56531-3 0  9999
2 47963  97.5505 142.4783 0021430  57.9182 302.4122 15.07607659 22894
